{"type": "FeatureCollection", "features": [ {"type": "Feature", "properties": {"norad_id": 67091, "name": "STARLINK-36097", "group": "last-30-days", "lat": 66.39609096105302, "lon": -93.71875946768198, "alt_km": 340.8814959001538, "timestamp": "2025-12-26T20:30:44.703455+00:00", "meta": {"OBJECT_NAME": "STARLINK-36097", "OBJECT_ID": "2025-298S", "EPOCH": "2025-12-26T14:00:04.000032", "MEAN_MOTION": 15.75663864, "ECCENTRICITY": 0.00037658, "INCLINATION": 69.9981, "RA_OF_ASC_NODE": 210.5756, "ARG_OF_PERICENTER": 265.8924, "MEAN_ANOMALY": 73.3779, "EPHEMERIS_TYPE": 0, "CLASSIFICATION_TYPE": "U", "NORAD_CAT_ID": 67091, "ELEMENT_SET_NO": 999, "REV_AT_EPOCH": 320, "BSTAR": -0.012648841, "MEAN_MOTION_DOT": -0.01716591, "MEAN_MOTION_DDOT": 0}, "tle": {"line1": "1 67091U 25298S   25360.58337963 -.01716591  00000+0 -12649-1 0  9993", "line2": "2 67091  69.9981 210.5756 0003765 265.8924  73.3779 15.75663864  3202"}}, "geometry": {"type": "Point", "coordinates": [-93.71875946768198, 66.39609096105302]}}, {"type": "Feature", "properties": {"norad_id": 67092, "name": "STARLINK-35792", "group": "last-30-days", "lat": 67.32132085052103, "lon": -89.54349550719618, "alt_km": 340.9021907181732, "timestamp": "2025-12-26T20:30:44.703467+00:00", "meta": {"OBJECT_NAME": "STARLINK-35792", "OBJECT_ID": "2025-298T", "EPOCH": "2025-12-26T14:00:04.000032", "MEAN_MOTION": 15.756685, "ECCENTRICITY": 0.00039703, "INCLINATION": 69.9998, "RA_OF_ASC_NODE": 210.5732, "ARG_OF_PERICENTER": 269.505, "MEAN_ANOMALY": 71.6383, "EPHEMERIS_TYPE": 0, "CLASSIFICATION_TYPE": "U", "NORAD_CAT_ID": 67092, "ELEMENT_SET_NO": 999, "REV_AT_EPOCH": 314, "BSTAR": -0.012612624, "MEAN_MOTION_DOT": -0.01712755, "MEAN_MOTION_DDOT": 0}, "tle": {"line1": "1 67092U 25298T   25360.58337963 -.01712755  00000+0 -12613-1 0  9993", "line2": "2 67092  69.9998 210.5732 0003970 269.5050  71.6383 15.75668500  3141"}}, "geometry": {"type": "Point", "coordinates": [-89.54349550719618, 67.32132085052103]}}, {"type": "Feature", "properties": {"norad_id": 67093, "name": "STARLINK-35784", "group": "last-30-days", "lat": 68.15875897617799, "lon": -84.84872322402796, "alt_km": 340.71252920849656, "timestamp": "2025-12-26T20:30:44.703475+00:00", "meta": {"OBJECT_NAME": "STARLINK-35784", "OBJECT_ID": "2025-298U", "EPOCH": "2025-12-26T14:00:04.000032", "MEAN_MOTION": 15.75662307, "ECCENTRICITY": 0.00037438, "INCLINATION": 69.9978, "RA_OF_ASC_NODE": 210.5704, "ARG_OF_PERICENTER": 268.7616, "MEAN_ANOMALY": 74.3534, "EPHEMERIS_TYPE": 0, "CLASSIFICATION_TYPE": "U", "NORAD_CAT_ID": 67093, "ELEMENT_SET_NO": 999, "REV_AT_EPOCH": 320, "BSTAR": -0.012641491, "MEAN_MOTION_DOT": -0.01715584, "MEAN_MOTION_DDOT": 0}, "tle": {"line1": "1 67093U 25298U   25360.58337963 -.01715584  00000+0 -12641-1 0  9998", "line2": "2 67093  69.9978 210.5704 0003743 268.7616  74.3534 15.75662307  3200"}}, "geometry": {"type": "Point", "coordinates": [-84.84872322402796, 68.15875897617799]}}, {"type": "Feature", "properties": {"norad_id": 67094, "name": "STARLINK-36202", "group": "last-30-days", "lat": 68.89993782763676, "lon": -79.4551928201574, "alt_km": 340.72532297218095, "timestamp": "2025-12-26T20:30:44.703484+00:00", "meta": {"OBJECT_NAME": "STARLINK-36202", "OBJECT_ID": "2025-298V", "EPOCH": "2025-12-26T14:00:04.000032", "MEAN_MOTION": 15.75653138, "ECCENTRICITY": 0.00038101, "INCLINATION": 69.9976, "RA_OF_ASC_NODE": 210.5681, "ARG_OF_PERICENTER": 268.6986, "MEAN_ANOMALY": 76.5308, "EPHEMERIS_TYPE": 0, "CLASSIFICATION_TYPE": "U", "NORAD_CAT_ID": 67094, "ELEMENT_SET_NO": 999, "REV_AT_EPOCH": 320, "BSTAR": -0.012626731, "MEAN_MOTION_DOT": -0.01713266, "MEAN_MOTION_DDOT": 0}, "tle": {"line1": "1 67094U 25298V   25360.58337963 -.01713266  00000+0 -12627-1 0  9998", "line2": "2 67094  69.9976 210.5681 0003810 268.6986  76.5308 15.75653138  3202"}}, "geometry": {"type": "Point", "coordinates": [-79.4551928201574, 68.89993782763676]}}, {"type": "Feature", "properties": {"norad_id": 67095, "name": "STARLINK-36227", "group": "last-30-days", "lat": 69.44303674497489, "lon": -73.96743337649416, "alt_km": 340.7681461590055, "timestamp": "2025-12-26T20:30:44.703493+00:00", "meta": {"OBJECT_NAME": "STARLINK-36227", "OBJECT_ID": "2025-298W", "EPOCH": "2025-12-26T14:00:04.000032", "MEAN_MOTION": 15.75654658, "ECCENTRICITY": 0.00039328, "INCLINATION": 69.9994, "RA_OF_ASC_NODE": 210.5655, "ARG_OF_PERICENTER": 269.2095, "MEAN_ANOMALY": 78.0422, "EPHEMERIS_TYPE": 0, "CLASSIFICATION_TYPE": "U", "NORAD_CAT_ID": 67095, "ELEMENT_SET_NO": 999, "REV_AT_EPOCH": 314, "BSTAR": -0.01264931, "MEAN_MOTION_DOT": -0.01716196, "MEAN_MOTION_DDOT": 0}, "tle": {"line1": "1 67095U 25298W   25360.58337963 -.01716196  00000+0 -12649-1 0  9998", "line2": "2 67095  69.9994 210.5655 0003932 269.2095  78.0422 15.75654658  3142"}}, "geometry": {"type": "Point", "coordinates": [-73.96743337649416, 69.44303674497489]}}, {"type": "Feature", "properties": {"norad_id": 67096, "name": "STARLINK-36228", "group": "last-30-days", "lat": 69.77786953197807, "lon": -68.78480285384903, "alt_km": 340.78719087196987, "timestamp": "2025-12-26T20:30:44.703502+00:00", "meta": {"OBJECT_NAME": "STARLINK-36228", "OBJECT_ID": "2025-298X", "EPOCH": "2025-12-26T14:00:04.000032", "MEAN_MOTION": 15.75652924, "ECCENTRICITY": 0.00040111, "INCLINATION": 69.9996, "RA_OF_ASC_NODE": 210.5636, "ARG_OF_PERICENTER": 270.8635, "MEAN_ANOMALY": 78.2206, "EPHEMERIS_TYPE": 0, "CLASSIFICATION_TYPE": "U", "NORAD_CAT_ID": 67096, "ELEMENT_SET_NO": 999, "REV_AT_EPOCH": 314, "BSTAR": -0.012589981, "MEAN_MOTION_DOT": -0.01709038, "MEAN_MOTION_DDOT": 0}, "tle": {"line1": "1 67096U 25298X   25360.58337963 -.01709038  00000+0 -12590-1 0  9991", "line2": "2 67096  69.9996 210.5636 0004011 270.8635  78.2206 15.75652924  3147"}}, "geometry": {"type": "Point", "coordinates": [-68.78480285384903, 69.77786953197807]}}, {"type": "Feature", "properties": {"norad_id": 67097, "name": "STARLINK-36222", "group": "last-30-days", "lat": 69.96329090572017, "lon": -63.04675184159332, "alt_km": 340.7421715755481, "timestamp": "2025-12-26T20:30:44.703512+00:00", "meta": {"OBJECT_NAME": "STARLINK-36222", "OBJECT_ID": "2025-298Y", "EPOCH": "2025-12-26T14:00:04.000032", "MEAN_MOTION": 15.75651543, "ECCENTRICITY": 0.00039496, "INCLINATION": 69.9994, "RA_OF_ASC_NODE": 210.561, "ARG_OF_PERICENTER": 268.4483, "MEAN_ANOMALY": 82.6216, "EPHEMERIS_TYPE": 0, "CLASSIFICATION_TYPE": "U", "NORAD_CAT_ID": 67097, "ELEMENT_SET_NO": 999, "REV_AT_EPOCH": 314, "BSTAR": -0.012619856, "MEAN_MOTION_DOT": -0.01712471, "MEAN_MOTION_DDOT": 0}, "tle": {"line1": "1 67097U 25298Y   25360.58337963 -.01712471  00000+0 -12620-1 0  9991", "line2": "2 67097  69.9994 210.5610 0003949 268.4483  82.6216 15.75651543  3147"}}, "geometry": {"type": "Point", "coordinates": [-63.04675184159332, 69.96329090572017]}}, {"type": "Feature", "properties": {"norad_id": 67098, "name": "STARLINK-36205", "group": "last-30-days", "lat": 69.95349935508584, "lon": -56.913513713502276, "alt_km": 340.66123017684004, "timestamp": "2025-12-26T20:30:44.703521+00:00", "meta": {"OBJECT_NAME": "STARLINK-36205", "OBJECT_ID": "2025-298Z", "EPOCH": "2025-12-26T14:00:04.000032", "MEAN_MOTION": 15.7564248, "ECCENTRICITY": 0.00037919, "INCLINATION": 69.9975, "RA_OF_ASC_NODE": 210.5582, "ARG_OF_PERICENTER": 267.4253, "MEAN_ANOMALY": 85.7553, "EPHEMERIS_TYPE": 0, "CLASSIFICATION_TYPE": "U", "NORAD_CAT_ID": 67098, "ELEMENT_SET_NO": 999, "REV_AT_EPOCH": 320, "BSTAR": -0.012667411, "MEAN_MOTION_DOT": -0.01717413, "MEAN_MOTION_DDOT": 0}, "tle": {"line1": "1 67098U 25298Z   25360.58337963 -.01717413  00000+0 -12667-1 0  9994", "line2": "2 67098  69.9975 210.5582 0003791 267.4253  85.7553 15.75642480  3209"}}, "geometry": {"type": "Point", "coordinates": [-56.913513713502276, 69.95349935508584]}}, {"type": "Feature", "properties": {"norad_id": 67099, "name": "STARLINK-36193", "group": "last-30-days", "lat": 65.07129884312987, "lon": -98.58890418145702, "alt_km": 352.65038793472377, "timestamp": "2025-12-26T20:30:44.703530+00:00", "meta": {"OBJECT_NAME": "STARLINK-36193", "OBJECT_ID": "2025-298AA", "EPOCH": "2025-12-26T14:00:04.000032", "MEAN_MOTION": 15.71998583, "ECCENTRICITY": 0.00038048, "INCLINATION": 69.9987, "RA_OF_ASC_NODE": 210.5739, "ARG_OF_PERICENTER": 265.1516, "MEAN_ANOMALY": 75.5155, "EPHEMERIS_TYPE": 0, "CLASSIFICATION_TYPE": "U", "NORAD_CAT_ID": 67099, "ELEMENT_SET_NO": 999, "REV_AT_EPOCH": 314, "BSTAR": -0.021255298, "MEAN_MOTION_DOT": -0.02397518, "MEAN_MOTION_DDOT": 0}, "tle": {"line1": "1 67099U 25298AA  25360.58337963 -.02397518  00000+0 -21255-1 0  9999", "line2": "2 67099  69.9987 210.5739 0003804 265.1516  75.5155 15.71998583  3141"}}, "geometry": {"type": "Point", "coordinates": [-98.58890418145702, 65.07129884312987]}}, {"type": "Feature", "properties": {"norad_id": 67100, "name": "STARLINK-36215", "group": "last-30-days", "lat": 68.94662200966607, "lon": -41.36918396728177, "alt_km": 340.6914400783571, "timestamp": "2025-12-26T20:30:44.703540+00:00", "meta": {"OBJECT_NAME": "STARLINK-36215", "OBJECT_ID": "2025-298AB", "EPOCH": "2025-12-26T14:00:04.000032", "MEAN_MOTION": 15.75653028, "ECCENTRICITY": 0.00037781, "INCLINATION": 69.9971, "RA_OF_ASC_NODE": 210.5516, "ARG_OF_PERICENTER": 269.4827, "MEAN_ANOMALY": 89.2147, "EPHEMERIS_TYPE": 0, "CLASSIFICATION_TYPE": "U", "NORAD_CAT_ID": 67100, "ELEMENT_SET_NO": 999, "REV_AT_EPOCH": 320, "BSTAR": -0.012667066, "MEAN_MOTION_DOT": -0.01718065, "MEAN_MOTION_DDOT": 0}, "tle": {"line1": "1 67100U 25298AB  25360.58337963 -.01718065  00000+0 -12667-1 0  9992", "line2": "2 67100  69.9971 210.5516 0003778 269.4827  89.2147 15.75653028  3208"}}, "geometry": {"type": "Point", "coordinates": [-41.36918396728177, 68.94662200966607]}}]}